STARLINK-1860           
1 47147U 20088AB  23331.57440701  .00007481  00000+0  52107-3 0  9998
2 47147  53.0551  81.6193 0001440  78.2067 281.9083 15.06364135166278
STARLINK-1861           
1 47148U 20088AC  23331.54950523  .00016230  00000+0  11064-2 0  9992
2 47148  53.0543  71.7318 0001497 143.3968 216.7124 15.06384262166405
STARLINK-1862           
1 47149U 20088AD  23331.57807735 -.00001674  00000+0 -93568-4 0  9991
2 47149  53.0555  81.6004 0001314 117.6454 242.4669 15.06388111167007
STARLINK-1863           
1 47150U 20088AE  23331.50530177 -.00005825  00000+0 -37273-3 0  9991
2 47150  53.0556  71.9205 0002081 141.3667 218.7471 15.06369736166409
STARLINK-1864           
1 47151U 20088AF  23331.57070285  .00000730  00000+0  67941-4 0  9992
2 47151  53.0557  81.6360 0001252 132.2996 227.8099 15.06389933166266
STARLINK-1866           
1 47152U 20088AG  23331.55502411 -.00000907  00000+0 -41996-4 0  9992
2 47152  53.0546  81.6906 0001180 110.9657 249.1458 15.06387255166269
STARLINK-1867           
1 47153U 20088AH  23331.62002691 -.00002120  00000+0 -12347-3 0  9992
2 47153  53.0556  86.6531 0001474 125.1171 234.9956 15.06389339166209
STARLINK-1869           
1 47155U 20088AK  23331.56240812 -.00000759  00000+0 -32045-4 0  9990
2 47155  53.0567  91.6652 0001628 117.5910 242.5244 15.06405003166123
STARLINK-1871           
1 47157U 20088AM  23331.60020970 -.00008750  00000+0 -56985-3 0  9995
2 47157  53.0552  81.5017 0001626  79.6420 280.4753 15.06359801166270
STARLINK-1873           
1 47158U 20088AN  23331.55690434 -.00004193  00000+0 -26289-3 0  9999
2 47158  53.0563  71.7039 0001794  88.1500 271.9695 15.06377629166401
STARLINK-1876           
1 47161U 20088AR  23331.59007083 -.00002235  00000+0 -13133-3 0  9998
2 47161  53.0558  71.5508 0001237  85.9553 274.1577 15.06373204166413
STARLINK-1877           
1 47162U 20088AS  23331.58545887 -.00000837  00000+0 -37333-4 0  9992
2 47162  53.0554  81.5729 0001728  86.7036 273.4151 15.06382872166271
STARLINK-1878           
1 47163U 20088AT  23331.61769832 -.00003468  00000+0 -21409-3 0  9994
2 47163  53.0539  91.4267 0000762  90.5865 269.5211 15.06391317166134
STARLINK-1879           
1 47164U 20088AU  23331.53940115 -.00003309  00000+0 -20344-3 0  9992
2 47164  53.0561  61.7678 0001696  94.3348 265.7835 15.06378634166543
STARLINK-1880           
1 47165U 20088AV  23331.54489260 -.00005441  00000+0 -34678-3 0  9997
2 47165  53.0545  81.7483 0001362  99.2034 260.9109 15.06390096166264
STARLINK-1884           
1 47167U 20088AX  23331.53017546 -.00000749  00000+0 -31421-4 0  9992
2 47167  53.0552  81.8187 0001554  96.6703 263.4463 15.06383852166266
STARLINK-1887           
1 47170U 20088BA  23331.58177732 -.00001974  00000+0 -11370-3 0  9996
2 47170  53.0565  81.5892 0001514  90.2964 269.8199 15.06377005166279
STARLINK-1888           
1 47171U 20088BB  23331.60113237  .00007221  00000+0  50352-3 0  9992
2 47171  53.0547  71.4957 0001620  71.7755 288.3410 15.06371251166415
STARLINK-1890           
1 47173U 20088BD  23331.52649801 -.00001682  00000+0 -94120-4 0  9995
2 47173  53.0572  81.8368 0001702  77.6118 282.5061 15.06379986166269
STARLINK-1891           
1 47174U 20088BE  23331.60387689 -.00005920  00000+0 -37909-3 0  9998
2 47174  53.0553  81.4784 0001123 108.6808 251.4303 15.06381297166278
STARLINK-1895           
1 47175U 20088BF  23331.46934999 -.00009258  00000+0 -60374-3 0  9995
2 47175  53.0569  62.0909 0001043 101.7721 258.3385 15.06384205166536
STARLINK-1907           
1 47177U 20088BH  23331.52003191 -.00001944  00000+0 -11169-3 0  9997
2 47177  53.0550  71.8609 0001415  65.9450 294.1687 15.06381950166409
STARLINK-1912           
1 47178U 20088BJ  23331.56701310  .00000696  00000+0  65644-4 0  9999
2 47178  53.0552  81.6520 0001469 103.6222 256.4931 15.06395049166260
STARLINK-1913           
1 47179U 20088BK  23331.62139292 -.00001771  00000+0 -10006-3 0  9999
2 47179  53.0532  91.4048 0001224  71.5083 288.6039 15.06395700166136
STARLINK-1927           
1 47181U 20088BM  23331.42288730  .00062206  00000+0  22278-2 0  9993
2 47181  53.0772  36.2517 0003223 346.3209  13.7702 15.28190307166894
STARLINK-2011           
1 47350U 21005B   23331.63339344  .00004504  00000+0  32117-3 0  9993
2 47350  53.0523 201.3536 0001438 105.4111 254.7037 15.06386346157483
STARLINK-2017           
1 47351U 21005C   23331.52922807  .00002592  00000+0  19287-3 0  9992
2 47351  53.0525 161.8102 0001397  86.0543 274.0606 15.06397957158020
STARLINK-2034           
1 47352U 21005D   23330.88513696  .00003266  00000+0  23808-3 0  9996
2 47352  53.0543 204.7144 0001621 119.9806 240.1344 15.06393079157362
STARLINK-2045           
1 47353U 21005E   23331.50390482  .00000998  00000+0  85906-4 0  9990
2 47353  53.0523 146.9339 0001462  97.3354 262.7802 15.06401805158237
STARLINK-2046           
1 47354U 21005F   23331.51955532  .00003292  00000+0  23983-3 0  9991
2 47354  53.0536 166.8954 0001508  96.6377 263.4784 15.06394544157950
STARLINK-2047           
1 47355U 21005G   23331.47211354  .00001489  00000+0  11881-3 0  9994
2 47355  53.0531 152.0758 0001711 114.4447 245.6720 15.06400160158155
STARLINK-2049           
1 47356U 21005H   23330.98742218  .00002704  00000+0  20038-3 0  9993
2 47356  53.0534 174.2564 0001552  68.1186 291.9968 15.06397645157800
STARLINK-2050           
1 47357U 21005J   23331.03160037 -.00003041  00000+0 -18543-3 0  9999
2 47357  53.0525 203.7385 0001619  77.1123 283.0047 15.06386040157396
STARLINK-2055           
1 47358U 21005K   23330.99753176  .00001689  00000+0  13221-3 0  9998
2 47358  53.0522 174.1998 0001633  84.6423 275.4752 15.06406206157808
STARLINK-2069           
1 47359U 21005L   23331.00907066 -.00003209  00000+0 -19666-3 0  9992
2 47359  53.0526 199.1565 0001475 106.0115 254.1036 15.06389500157458
STARLINK-2070           
1 47360U 21005M   23330.81647317  .00001549  00000+0  12289-3 0  9999
2 47360  53.0516 170.0230 0001449  75.6829 284.4321 15.06387570157852
STARLINK-2071           
1 47361U 21005N   23330.80680798  .00001383  00000+0  11175-3 0  9998
2 47361  53.0523 175.0658 0001292  93.0551 267.0585 15.06387793157779
STARLINK-2076           
1 47362U 21005P   23331.05100971 -.00002652  00000+0 -15927-3 0  9998
2 47362  53.0527 203.9712 0001525  89.4201 270.6963 15.06386951157399
STARLINK-2077           
1 47363U 21005Q   23330.92200552  .00000548  00000+0  55725-4 0  9991
2 47363  53.0534 204.5386 0001865 129.5113 230.6041 15.06394302157377
STARLINK-2081           
1 47366U 21005T   23331.61126956  .00003249  00000+0  23698-3 0  9990
2 47366  53.0525 201.4543 0001437 106.6712 253.4435 15.06388042157472
STARLINK-2082           
1 47367U 21005U   23331.03995520 -.00001522  00000+0 -83324-4 0  9995
2 47367  53.0529 204.0184 0001390  92.5787 267.5361 15.06387732157390
STARLINK-2084           
1 47368U 21005V   23331.62970611  .00005611  00000+0  39533-3 0  9998
2 47368  53.0528 201.3715 0001366  99.2208 260.8935 15.06394042157480
STARLINK-2085           
1 47369U 21005W   23330.97545005 -.00002569  00000+0 -15363-3 0  9997
2 47369  53.0534 184.3473 0001496  81.2530 278.8628 15.06397583157663
STARLINK-2086           
1 47370U 21005X   23331.52648430  .00000561  00000+0  56551-4 0  9990
2 47370  53.0529 161.8333 0001383 103.8913 256.2230 15.06397947158030
STARLINK-2088           
1 47371U 21005Y   23330.91462953  .00003287  00000+0  23955-3 0  9996
2 47371  53.0531 204.5819 0001396  89.1784 270.9365 15.06388441157371
STARLINK-2089           
1 47372U 21005Z   23331.04229572  .00001400  00000+0  11293-3 0  9997
2 47372  53.0530 199.3271 0001416  96.0307 264.0843 15.06387437157453
STARLINK-2092           
1 47373U 21005AA  23331.04364101  .00001396  00000+0  11265-3 0  9999
2 47373  53.0538 204.0014 0001489  80.8111 279.3047 15.06383561157397
STARLINK-2093           
1 47374U 21005AB  23331.06206940  .00000321  00000+0  40429-4 0  9990
2 47374  53.0541 203.8909 0001336  93.9112 266.2030 15.06392053157392
STARLINK-2094           
1 47375U 21005AC  23330.87040090  .00001421  00000+0  11431-3 0  9993
2 47375  53.0532 204.7801 0001632 110.8876 249.2288 15.06392284157368
STARLINK-2096           
1 47376U 21005AD  23331.07312047 -.00002655  00000+0 -15951-3 0  9994
2 47376  53.0533 203.8702 0001462  98.2213 261.8942 15.06378103157399
STARLINK-2097           
1 47377U 21005AE  23331.05838386  .00001734  00000+0  13531-3 0  9999
2 47377  53.0541 203.9367 0001503  84.1446 275.9714 15.06385023157397
STARLINK-2098           
1 47378U 21005AF  23330.98465496  .00000295  00000+0  38687-4 0  9990
2 47378  53.0538 164.2660 0001451  98.4793 261.6361 15.06390282157948
STARLINK-2099           
1 47379U 21005AG  23331.52187106 -.00000352  00000+0 -47489-5 0  9998
2 47379  53.0532 161.8495 0001555  74.5090 285.6070 15.06379733158023
STARLINK-2100           
1 47380U 21005AH  23330.88790548  .00000730  00000+0  67939-4 0  9997
2 47380  53.0538 174.6991 0001504  88.2558 271.8603 15.06394413157793
STARLINK-2101           
1 47381U 21005AJ  23331.56750702  .00001418  00000+0  11405-3 0  9992
2 47381  53.0530 176.7374 0001567  83.8498 276.2670 15.06398954157828
STARLINK-2102           
1 47382U 21005AK  23330.88053564  .00000287  00000+0  38166-4 0  9996
2 47382  53.0538 174.7361 0001326  84.2148 275.8992 15.06383556157780
STARLINK-2103           
1 47383U 21005AL  23331.52285938 -.00003646  00000+0 -22611-3 0  9992
2 47383  53.0542 162.1323 0001896  94.9084 265.2122 15.06375980158022
STARLINK-2104           
1 47384U 21005AM  23330.99850089 -.00001097  00000+0 -54741-4 0  9996
2 47384  53.0518 174.4475 0001452  86.9164 273.1991 15.06400399157808
STARLINK-2105           
1 47385U 21005AN  23330.99479072 -.00001264  00000+0 -65944-4 0  9999
2 47385  53.0537 174.2239 0001551  83.9408 276.1757 15.06399007157800
